[{"OBJECT_NAME":"LEO EXPRESS 1","OBJECT_ID":"2023-174AX","EPOCH":"2026-03-09T18:25:46.135776","MEAN_MOTION":15.32756831,"ECCENTRICITY":0.00787345,"INCLINATION":97.5222,"RA_OF_ASC_NODE":152.4092,"ARG_OF_PERICENTER":115.921,"MEAN_ANOMALY":245.0174,"EPHEMERIS_TYPE":0,"CLASSIFICATION_TYPE":"U","NORAD_CAT_ID":58301,"ELEMENT_SET_NO":999,"REV_AT_EPOCH":12965,"BSTAR":0.00049741019,"MEAN_MOTION_DOT":0.00017303,"MEAN_MOTION_DDOT":0},{"OBJECT_NAME":"STARLINK-30929","OBJECT_ID":"2023-178N","EPOCH":"2026-03-09T02:16:37.117056","MEAN_MOTION":15.3019066,"ECCENTRICITY":9.844e-5,"INCLINATION":53.1622,"RA_OF_ASC_NODE":4.1069,"ARG_OF_PERICENTER":85.6529,"MEAN_ANOMALY":274.4584,"EPHEMERIS_TYPE":0,"CLASSIFICATION_TYPE":"U","NORAD_CAT_ID":58386,"ELEMENT_SET_NO":999,"REV_AT_EPOCH":12977,"BSTAR":6.4589605e-5,"MEAN_MOTION_DOT":1.554e-5,"MEAN_MOTION_DDOT":0}]
